[{"OBJECT_NAME":"SAL-E","OBJECT_ID":"2026-067AU","EPOCH":"2026-04-25T15:00:16.623360","MEAN_MOTION":15.16983134,"ECCENTRICITY":0.00039243,"INCLINATION":97.444,"RA_OF_ASC_NODE":74.8101,"ARG_OF_PERICENTER":249.7677,"MEAN_ANOMALY":110.3135,"EPHEMERIS_TYPE":0,"CLASSIFICATION_TYPE":"U","NORAD_CAT_ID":68458,"ELEMENT_SET_NO":999,"REV_AT_EPOCH":396,"BSTAR":0.00043412335,"MEAN_MOTION_DOT":8.512e-5,"MEAN_MOTION_DDOT":0},{"OBJECT_NAME":"TRANSPORTER-16 OBJECT AV","OBJECT_ID":"2026-067AV","EPOCH":"2026-04-25T13:27:09.769536","MEAN_MOTION":15.16864707,"ECCENTRICITY":0.00042817,"INCLINATION":97.4494,"RA_OF_ASC_NODE":74.7607,"ARG_OF_PERICENTER":238.2908,"MEAN_ANOMALY":121.7908,"EPHEMERIS_TYPE":0,"CLASSIFICATION_TYPE":"U","NORAD_CAT_ID":68459,"ELEMENT_SET_NO":999,"REV_AT_EPOCH":395,"BSTAR":0.00033199193,"MEAN_MOTION_DOT":6.471e-5,"MEAN_MOTION_DDOT":0},{"OBJECT_NAME":"COSMO","OBJECT_ID":"2026-067AW","EPOCH":"2026-04-25T13:26:27.405024","MEAN_MOTION":15.16923732,"ECCENTRICITY":0.00041629,"INCLINATION":97.4462,"RA_OF_ASC_NODE":74.7515,"ARG_OF_PERICENTER":243.8919,"MEAN_ANOMALY":116.1886,"EPHEMERIS_TYPE":0,"CLASSIFICATION_TYPE":"U","NORAD_CAT_ID":68460,"ELEMENT_SET_NO":999,"REV_AT_EPOCH":395,"BSTAR":0.00040368916,"MEAN_MOTION_DOT":7.897e-5,"MEAN_MOTION_DDOT":0},{"OBJECT_NAME":"TRANSPORTER-16 OBJECT AX","OBJECT_ID":"2026-067AX","EPOCH":"2026-04-25T14:49:07.597920","MEAN_MOTION":15.17423762,"ECCENTRICITY":0.00019864,"INCLINATION":97.4516,"RA_OF_ASC_NODE":74.8458,"ARG_OF_PERICENTER":231.3856,"MEAN_ANOMALY":128.72,"EPHEMERIS_TYPE":0,"CLASSIFICATION_TYPE":"U","NORAD_CAT_ID":68461,"ELEMENT_SET_NO":999,"REV_AT_EPOCH":396,"BSTAR":0.00042788307,"MEAN_MOTION_DOT":8.495e-5,"MEAN_MOTION_DDOT":0},{"OBJECT_NAME":"TRANSPORTER-16 OBJECT AY","OBJECT_ID":"2026-067AY","EPOCH":"2026-04-25T13:00:21.233088","MEAN_MOTION":15.17982142,"ECCENTRICITY":0.00022218,"INCLINATION":97.4518,"RA_OF_ASC_NODE":74.7945,"ARG_OF_PERICENTER":158.8341,"MEAN_ANOMALY":201.2986,"EPHEMERIS_TYPE":0,"CLASSIFICATION_TYPE":"U","NORAD_CAT_ID":68462,"ELEMENT_SET_NO":999,"REV_AT_EPOCH":395,"BSTAR":0.00036695948,"MEAN_MOTION_DOT":7.393e-5,"MEAN_MOTION_DDOT":0},{"OBJECT_NAME":"GARAI-B (UNAMUNO)","OBJECT_ID":"2026-067AZ","EPOCH":"2026-04-25T13:14:30.720480","MEAN_MOTION":15.17300059,"ECCENTRICITY":0.00016947,"INCLINATION":97.45,"RA_OF_ASC_NODE":74.7747,"ARG_OF_PERICENTER":236.6666,"MEAN_ANOMALY":123.4406,"EPHEMERIS_TYPE":0,"CLASSIFICATION_TYPE":"U","NORAD_CAT_ID":68463,"ELEMENT_SET_NO":999,"REV_AT_EPOCH":395,"BSTAR":0.00036726307,"MEAN_MOTION_DOT":7.255e-5,"MEAN_MOTION_DDOT":0},{"OBJECT_NAME":"TRANSPORTER-16 OBJECT BA","OBJECT_ID":"2026-067BA","EPOCH":"2026-04-25T13:14:37.057056","MEAN_MOTION":15.17344228,"ECCENTRICITY":0.00013781,"INCLINATION":97.4481,"RA_OF_ASC_NODE":74.7672,"ARG_OF_PERICENTER":251.4834,"MEAN_ANOMALY":108.625,"EPHEMERIS_TYPE":0,"CLASSIFICATION_TYPE":"U","NORAD_CAT_ID":68464,"ELEMENT_SET_NO":999,"REV_AT_EPOCH":395,"BSTAR":0.00025397343,"MEAN_MOTION_DOT":5.001e-5,"MEAN_MOTION_DDOT":0},{"OBJECT_NAME":"TRANSPORTER-16 OBJECT BB","OBJECT_ID":"2026-067BB","EPOCH":"2026-04-25T13:15:11.582496","MEAN_MOTION":15.1728901,"ECCENTRICITY":0.0001449,"INCLINATION":97.4487,"RA_OF_ASC_NODE":74.7686,"ARG_OF_PERICENTER":248.3062,"MEAN_ANOMALY":111.8017,"EPHEMERIS_TYPE":0,"CLASSIFICATION_TYPE":"U","NORAD_CAT_ID":68465,"ELEMENT_SET_NO":999,"REV_AT_EPOCH":395,"BSTAR":0.00016908099,"MEAN_MOTION_DOT":3.302e-5,"MEAN_MOTION_DDOT":0},{"OBJECT_NAME":"TRANSPORTER-16 OBJECT BC","OBJECT_ID":"2026-067BC","EPOCH":"2026-04-25T15:02:53.037600","MEAN_MOTION":15.16860283,"ECCENTRICITY":0.0004142,"INCLINATION":97.4448,"RA_OF_ASC_NODE":74.8091,"ARG_OF_PERICENTER":260.6638,"MEAN_ANOMALY":99.4127,"EPHEMERIS_TYPE":0,"CLASSIFICATION_TYPE":"U","NORAD_CAT_ID":68466,"ELEMENT_SET_NO":999,"REV_AT_EPOCH":381,"BSTAR":0.00041009291,"MEAN_MOTION_DOT":8.009e-5,"MEAN_MOTION_DDOT":0},{"OBJECT_NAME":"TRANSPORTER-16 OBJECT BD","OBJECT_ID":"2026-067BD","EPOCH":"2026-04-25T13:21:09.547200","MEAN_MOTION":15.17346993,"ECCENTRICITY":0.00040912,"INCLINATION":97.438,"RA_OF_ASC_NODE":74.731,"ARG_OF_PERICENTER":252.5527,"MEAN_ANOMALY":107.526,"EPHEMERIS_TYPE":0,"CLASSIFICATION_TYPE":"U","NORAD_CAT_ID":68467,"ELEMENT_SET_NO":999,"REV_AT_EPOCH":395,"BSTAR":0.00086874502,"MEAN_MOTION_DOT":0.00017301,"MEAN_MOTION_DDOT":0},{"OBJECT_NAME":"ERMIS-1","OBJECT_ID":"2026-067BE","EPOCH":"2026-04-25T13:29:32.917920","MEAN_MOTION":15.1682696,"ECCENTRICITY":0.00050387,"INCLINATION":97.452,"RA_OF_ASC_NODE":74.7673,"ARG_OF_PERICENTER":228.9633,"MEAN_ANOMALY":131.1166,"EPHEMERIS_TYPE":0,"CLASSIFICATION_TYPE":"U","NORAD_CAT_ID":68468,"ELEMENT_SET_NO":999,"REV_AT_EPOCH":395,"BSTAR":0.00047603798,"MEAN_MOTION_DOT":9.301e-5,"MEAN_MOTION_DDOT":0},{"OBJECT_NAME":"TRANSPORTER-16 OBJECT BF","OBJECT_ID":"2026-067BF","EPOCH":"2026-04-25T13:13:51.792096","MEAN_MOTION":15.17341128,"ECCENTRICITY":0.00016135,"INCLINATION":97.4504,"RA_OF_ASC_NODE":74.7765,"ARG_OF_PERICENTER":234.467,"MEAN_ANOMALY":125.6413,"EPHEMERIS_TYPE":0,"CLASSIFICATION_TYPE":"U","NORAD_CAT_ID":68469,"ELEMENT_SET_NO":999,"REV_AT_EPOCH":395,"BSTAR":0.00016566128,"MEAN_MOTION_DOT":3.238e-5,"MEAN_MOTION_DDOT":0},{"OBJECT_NAME":"TRANSPORTER-16 OBJECT BG","OBJECT_ID":"2026-067BG","EPOCH":"2026-04-25T13:30:34.890048","MEAN_MOTION":15.16771216,"ECCENTRICITY":0.00050735,"INCLINATION":97.444,"RA_OF_ASC_NODE":74.7415,"ARG_OF_PERICENTER":245.7615,"MEAN_ANOMALY":114.3089,"EPHEMERIS_TYPE":0,"CLASSIFICATION_TYPE":"U","NORAD_CAT_ID":68470,"ELEMENT_SET_NO":999,"REV_AT_EPOCH":395,"BSTAR":0.00043211441,"MEAN_MOTION_DOT":8.422e-5,"MEAN_MOTION_DDOT":0},{"OBJECT_NAME":"TRANSPORTER-16 OBJECT BH","OBJECT_ID":"2026-067BH","EPOCH":"2026-04-25T12:57:53.286048","MEAN_MOTION":14.91051176,"ECCENTRICITY":0.00027435,"INCLINATION":97.7538,"RA_OF_ASC_NODE":74.5864,"ARG_OF_PERICENTER":201.8877,"MEAN_ANOMALY":158.2225,"EPHEMERIS_TYPE":0,"CLASSIFICATION_TYPE":"U","NORAD_CAT_ID":68471,"ELEMENT_SET_NO":999,"REV_AT_EPOCH":388,"BSTAR":0.00065840967,"MEAN_MOTION_DOT":6.466e-5,"MEAN_MOTION_DDOT":0},{"OBJECT_NAME":"FLYLAB1","OBJECT_ID":"2026-067BJ","EPOCH":"2026-04-25T14:37:25.059648","MEAN_MOTION":14.90861252,"ECCENTRICITY":0.00036513,"INCLINATION":97.7596,"RA_OF_ASC_NODE":74.6625,"ARG_OF_PERICENTER":192.8282,"MEAN_ANOMALY":167.2844,"EPHEMERIS_TYPE":0,"CLASSIFICATION_TYPE":"U","NORAD_CAT_ID":68472,"ELEMENT_SET_NO":999,"REV_AT_EPOCH":389,"BSTAR":7.167299e-5,"MEAN_MOTION_DOT":6.51e-6,"MEAN_MOTION_DDOT":0},{"OBJECT_NAME":"TRANSPORTER-16 OBJECT BK","OBJECT_ID":"2026-067BK","EPOCH":"2026-04-25T14:34:47.121312","MEAN_MOTION":15.18001801,"ECCENTRICITY":0.00018934,"INCLINATION":97.4501,"RA_OF_ASC_NODE":74.8531,"ARG_OF_PERICENTER":156.8165,"MEAN_ANOMALY":203.3154,"EPHEMERIS_TYPE":0,"CLASSIFICATION_TYPE":"U","NORAD_CAT_ID":68473,"ELEMENT_SET_NO":999,"REV_AT_EPOCH":394,"BSTAR":0.00033497599,"MEAN_MOTION_DOT":6.746e-5,"MEAN_MOTION_DDOT":0}]
