SAL-E                   
1 68458U 26067AU  26115.62519240  .00008512  00000+0  43412-3 0  9998
2 68458  97.4440  74.8101 0003924 249.7677 110.3135 15.16983134  3965
TRANSPORTER-16 OBJECT AV
1 68459U 26067AV  26115.56052974  .00006471  00000+0  33199-3 0  9991
2 68459  97.4494  74.7607 0004281 238.2908 121.7908 15.16864707  3959
COSMO                   
1 68460U 26067AW  26115.56003941  .00007897  00000+0  40369-3 0  9993
2 68460  97.4462  74.7515 0004162 243.8919 116.1886 15.16923732  3953
TRANSPORTER-16 OBJECT AX
1 68461U 26067AX  26115.61744905  .00008495  00000+0  42788-3 0  9994
2 68461  97.4516  74.8458 0001986 231.3856 128.7200 15.17423762  3963
TRANSPORTER-16 OBJECT AY
1 68462U 26067AY  26115.54191242  .00007393  00000+0  36696-3 0  9994
2 68462  97.4518  74.7945 0002221 158.8341 201.2986 15.17982142  3950
GARAI-B (UNAMUNO)       
1 68463U 26067AZ  26115.55174445  .00007255  00000+0  36726-3 0  9993
2 68463  97.4500  74.7747 0001694 236.6666 123.4406 15.17300059  3953
TRANSPORTER-16 OBJECT BA
1 68464U 26067BA  26115.55181779  .00005001  00000+0  25397-3 0  9991
2 68464  97.4481  74.7672 0001378 251.4834 108.6250 15.17344228  3958
TRANSPORTER-16 OBJECT BB
1 68465U 26067BB  26115.55221739  .00003302  00000+0  16908-3 0  9993
2 68465  97.4487  74.7686 0001449 248.3062 111.8017 15.17289010  3951
TRANSPORTER-16 OBJECT BC
1 68466U 26067BC  26115.62700275  .00008009  00000+0  41009-3 0  9998
2 68466  97.4448  74.8091 0004142 260.6638  99.4127 15.16860283  3813
TRANSPORTER-16 OBJECT BD
1 68467U 26067BD  26115.55636050  .00017301  00000+0  86875-3 0  9995
2 68467  97.4380  74.7310 0004091 252.5527 107.5260 15.17346993  3954
ERMIS-1                 
1 68468U 26067BE  26115.56218655  .00009301  00000+0  47604-3 0  9992
2 68468  97.4520  74.7673 0005038 228.9633 131.1166 15.16826960  3954
TRANSPORTER-16 OBJECT BF
1 68469U 26067BF  26115.55129389  .00003238  00000+0  16566-3 0  9993
2 68469  97.4504  74.7765 0001613 234.4670 125.6413 15.17341128  3959
TRANSPORTER-16 OBJECT BG
1 68470U 26067BG  26115.56290382  .00008422  00000+0  43211-3 0  9995
2 68470  97.4440  74.7415 0005073 245.7615 114.3089 15.16771216  3958
TRANSPORTER-16 OBJECT BH
1 68471U 26067BH  26115.54020007  .00006466  00000+0  65841-3 0  9998
2 68471  97.7538  74.5864 0002743 201.8877 158.2225 14.91051176  3889
FLYLAB1                 
1 68472U 26067BJ  26115.60931782  .00000651  00000+0  71673-4 0  9998
2 68472  97.7596  74.6625 0003651 192.8282 167.2844 14.90861252  3899
TRANSPORTER-16 OBJECT BK
1 68473U 26067BK  26115.60748983  .00006746  00000+0  33498-3 0  9991
2 68473  97.4501  74.8531 0001893 156.8165 203.3154 15.18001801  3946
